{
  "type": "FeatureCollection",
  "features": [
    {
      "type": "Feature",
      "properties": {
        "norad_id": 30127,
        "name": "FENGYUN 1C DEB",
        "group": "fengyun-1c-debris",
        "lat": -51.706877916886484,
        "lon": 19.370699382951408,
        "alt_km": 832.6419079010311,
        "timestamp": "2025-12-19T16:54:44.535398+00:00",
        "meta_object_name": "FENGYUN 1C DEB",
        "meta_object_id": "1999-025SG",
        "meta_epoch": "2025-12-18T01:25:57.196128",
        "meta_mean_motion": 14.38066612,
        "meta_eccentricity": 0.00856707,
        "meta_inclination": 98.2065,
        "meta_ra_of_asc_node": 208.3304,
        "meta_arg_of_pericenter": 63.135,
        "meta_mean_anomaly": 297.8564,
        "meta_ephemeris_type": 0,
        "meta_classification_type": "U",
        "meta_norad_cat_id": 30127,
        "meta_element_set_no": 999,
        "meta_rev_at_epoch": 97312,
        "meta_bstar": 0.001821293,
        "meta_mean_motion_dot": 5.718e-05,
        "meta_mean_motion_ddot": 0,
        "tle_line1": "1 30127U 99025SG  25352.05968977  .00005718  00000+0  18213-2 0  9993",
        "tle_line2": "2 30127  98.2065 208.3304 0085670  63.1350 297.8564 14.38066612973129"
      },
      "geometry": {
        "type": "Point",
        "coordinates": [
          19.370699382951408,
          -51.706877916886484
        ]
      }
    },
    {
      "type": "Feature",
      "properties": {
        "norad_id": 30128,
        "name": "FENGYUN 1C DEB",
        "group": "fengyun-1c-debris",
        "lat": 51.05337849676742,
        "lon": -17.488809130115026,
        "alt_km": 685.0457553348797,
        "timestamp": "2025-12-19T16:54:44.535408+00:00",
        "meta_object_name": "FENGYUN 1C DEB",
        "meta_object_id": "1999-025SH",
        "meta_epoch": "2025-12-19T05:38:32.087904",
        "meta_mean_motion": 14.46214901,
        "meta_eccentricity": 0.01075216,
        "meta_inclination": 96.9791,
        "meta_ra_of_asc_node": 350.8413,
        "meta_arg_of_pericenter": 104.4884,
        "meta_mean_anomaly": 24.7423,
        "meta_ephemeris_type": 0,
        "meta_classification_type": "U",
        "meta_norad_cat_id": 30128,
        "meta_element_set_no": 999,
        "meta_rev_at_epoch": 97405,
        "meta_bstar": 0.0017010431,
        "meta_mean_motion_dot": 6.51e-05,
        "meta_mean_motion_ddot": 0,
        "tle_line1": "1 30128U 99025SH  25353.23509361  .00006510  00000+0  17010-2 0  9998",
        "tle_line2": "2 30128  96.9791 350.8413 0107521 104.4884  24.7423 14.46214901974055"
      },
      "geometry": {
        "type": "Point",
        "coordinates": [
          -17.488809130115026,
          51.05337849676742
        ]
      }
    },
    {
      "type": "Feature",
      "properties": {
        "norad_id": 30129,
        "name": "FENGYUN 1C DEB",
        "group": "fengyun-1c-debris",
        "lat": -28.93427375214948,
        "lon": -60.794216329102554,
        "alt_km": 919.6945841974784,
        "timestamp": "2025-12-19T16:54:44.535419+00:00",
        "meta_object_name": "FENGYUN 1C DEB",
        "meta_object_id": "1999-025SJ",
        "meta_epoch": "2025-12-18T19:04:36.737760",
        "meta_mean_motion": 14.01590134,
        "meta_eccentricity": 0.01885304,
        "meta_inclination": 98.0292,
        "meta_ra_of_asc_node": 293.9289,
        "meta_arg_of_pericenter": 75.2696,
        "meta_mean_anomaly": 349.6363,
        "meta_ephemeris_type": 0,
        "meta_classification_type": "U",
        "meta_norad_cat_id": 30129,
        "meta_element_set_no": 999,
        "meta_rev_at_epoch": 96563,
        "meta_bstar": 0.00050963697,
        "meta_mean_motion_dot": 8.66e-06,
        "meta_mean_motion_ddot": 0,
        "tle_line1": "1 30129U 99025SJ  25352.79486965  .00000866  00000+0  50964-3 0  9997",
        "tle_line2": "2 30129  98.0292 293.9289 0188530  75.2696 349.6363 14.01590134965630"
      },
      "geometry": {
        "type": "Point",
        "coordinates": [
          -60.794216329102554,
          -28.93427375214948
        ]
      }
    },
    {
      "type": "Feature",
      "properties": {
        "norad_id": 30131,
        "name": "FENGYUN 1C DEB",
        "group": "fengyun-1c-debris",
        "lat": 3.89856274231501,
        "lon": -93.64491706862684,
        "alt_km": 775.6272126909507,
        "timestamp": "2025-12-19T16:54:44.535430+00:00",
        "meta_object_name": "FENGYUN 1C DEB",
        "meta_object_id": "1999-025SL",
        "meta_epoch": "2025-12-19T06:14:15.010080",
        "meta_mean_motion": 14.212547,
        "meta_eccentricity": 0.00825192,
        "meta_inclination": 99.0759,
        "meta_ra_of_asc_node": 85.274,
        "meta_arg_of_pericenter": 140.5725,
        "meta_mean_anomaly": 280.3121,
        "meta_ephemeris_type": 0,
        "meta_classification_type": "U",
        "meta_norad_cat_id": 30131,
        "meta_element_set_no": 999,
        "meta_rev_at_epoch": 96781,
        "meta_bstar": 0.0017581592,
        "meta_mean_motion_dot": 3.92e-05,
        "meta_mean_motion_ddot": 0,
        "tle_line1": "1 30131U 99025SL  25353.25989595  .00003920  00000+0  17582-2 0  9991",
        "tle_line2": "2 30131  99.0759  85.2740 0082519 140.5725 280.3121 14.21254700967818"
      },
      "geometry": {
        "type": "Point",
        "coordinates": [
          -93.64491706862684,
          3.89856274231501
        ]
      }
    },
    {
      "type": "Feature",
      "properties": {
        "norad_id": 30132,
        "name": "FENGYUN 1C DEB",
        "group": "fengyun-1c-debris",
        "lat": -44.462380881253225,
        "lon": 118.00996105655328,
        "alt_km": 992.9733721534903,
        "timestamp": "2025-12-19T16:54:44.535441+00:00",
        "meta_object_name": "FENGYUN 1C DEB",
        "meta_object_id": "1999-025SM",
        "meta_epoch": "2025-12-18T19:27:24.425568",
        "meta_mean_motion": 13.94856971,
        "meta_eccentricity": 0.01056743,
        "meta_inclination": 99.5781,
        "meta_ra_of_asc_node": 306.621,
        "meta_arg_of_pericenter": 33.5576,
        "meta_mean_anomaly": 25.1964,
        "meta_ephemeris_type": 0,
        "meta_classification_type": "U",
        "meta_norad_cat_id": 30132,
        "meta_element_set_no": 999,
        "meta_rev_at_epoch": 96174,
        "meta_bstar": 0.00045847265,
        "meta_mean_motion_dot": 5.97e-06,
        "meta_mean_motion_ddot": 0,
        "tle_line1": "1 30132U 99025SM  25352.81069937  .00000597  00000+0  45847-3 0  9995",
        "tle_line2": "2 30132  99.5781 306.6210 0105674  33.5576  25.1964 13.94856971961747"
      },
      "geometry": {
        "type": "Point",
        "coordinates": [
          118.00996105655328,
          -44.462380881253225
        ]
      }
    },
    {
      "type": "Feature",
      "properties": {
        "norad_id": 30133,
        "name": "FENGYUN 1C DEB",
        "group": "fengyun-1c-debris",
        "lat": 45.46558239894249,
        "lon": 151.28739121659353,
        "alt_km": 926.9238875436258,
        "timestamp": "2025-12-19T16:54:44.535452+00:00",
        "meta_object_name": "FENGYUN 1C DEB",
        "meta_object_id": "1999-025SN",
        "meta_epoch": "2025-12-19T00:10:17.616576",
        "meta_mean_motion": 14.06698837,
        "meta_eccentricity": 0.00858249,
        "meta_inclination": 98.3235,
        "meta_ra_of_asc_node": 159.2024,
        "meta_arg_of_pericenter": 242.6465,
        "meta_mean_anomaly": 232.8629,
        "meta_ephemeris_type": 0,
        "meta_classification_type": "U",
        "meta_norad_cat_id": 30133,
        "meta_element_set_no": 999,
        "meta_rev_at_epoch": 96466,
        "meta_bstar": 0.0011312883,
        "meta_mean_motion_dot": 1.903e-05,
        "meta_mean_motion_ddot": 0,
        "tle_line1": "1 30133U 99025SN  25353.00714834  .00001903  00000+0  11313-2 0  9993",
        "tle_line2": "2 30133  98.3235 159.2024 0085824 242.6465 232.8629 14.06698837964666"
      },
      "geometry": {
        "type": "Point",
        "coordinates": [
          151.28739121659353,
          45.46558239894249
        ]
      }
    },
    {
      "type": "Feature",
      "properties": {
        "norad_id": 30134,
        "name": "FENGYUN 1C DEB",
        "group": "fengyun-1c-debris",
        "lat": 24.399113156235956,
        "lon": -163.48307089996737,
        "alt_km": 833.3938383647956,
        "timestamp": "2025-12-19T16:54:44.535491+00:00",
        "meta_object_name": "FENGYUN 1C DEB",
        "meta_object_id": "1999-025SP",
        "meta_epoch": "2025-12-19T01:08:57.867936",
        "meta_mean_motion": 14.13358711,
        "meta_eccentricity": 0.00193105,
        "meta_inclination": 98.6931,
        "meta_ra_of_asc_node": 11.8994,
        "meta_arg_of_pericenter": 165.6505,
        "meta_mean_anomaly": 249.6413,
        "meta_ephemeris_type": 0,
        "meta_classification_type": "U",
        "meta_norad_cat_id": 30134,
        "meta_element_set_no": 999,
        "meta_rev_at_epoch": 97335,
        "meta_bstar": 0.00038532197,
        "meta_mean_motion_dot": 6.82e-06,
        "meta_mean_motion_ddot": 0,
        "tle_line1": "1 30134U 99025SP  25353.04789199  .00000682  00000+0  38532-3 0  9990",
        "tle_line2": "2 30134  98.6931  11.8994 0019310 165.6505 249.6413 14.13358711973353"
      },
      "geometry": {
        "type": "Point",
        "coordinates": [
          -163.48307089996737,
          24.399113156235956
        ]
      }
    }
  ]
}